{
  "type": "FeatureCollection",
  "features": [
    {
      "type": "Feature",
      "properties": {
        "norad_id": 40545,
        "name": "GSAT0204 (GALILEO 8)",
        "group": "gnss",
        "lat": 49.09574821905562,
        "lon": 117.57836976376873,
        "alt_km": 23231.98170783736,
        "timestamp": "2025-12-17T19:34:08.281379+00:00",
        "meta_object_name": "GSAT0204 (GALILEO 8)",
        "meta_object_id": "2015-017B",
        "meta_epoch": "2025-12-14T16:39:40.338432",
        "meta_mean_motion": 1.70475755,
        "meta_eccentricity": 0.0006191,
        "meta_inclination": 56.8531,
        "meta_ra_of_asc_node": 346.6443,
        "meta_arg_of_pericenter": 264.523,
        "meta_mean_anomaly": 95.425,
        "meta_ephemeris_type": 0,
        "meta_classification_type": "U",
        "meta_norad_cat_id": 40545,
        "meta_element_set_no": 999,
        "meta_rev_at_epoch": 2910,
        "meta_bstar": 0,
        "meta_mean_motion_dot": -8.5e-07,
        "meta_mean_motion_ddot": 0,
        "tle_line1": "1 40545U 15017B   25348.69421688 -.00000085  00000+0  00000+0 0  9990",
        "tle_line2": "2 40545  56.8531 346.6443 0006191 264.5230  95.4250  1.70475755 29105"
      },
      "geometry": {
        "type": "Point",
        "coordinates": [
          117.57836976376873,
          49.09574821905562
        ]
      }
    },
    {
      "type": "Feature",
      "properties": {
        "norad_id": 40549,
        "name": "BEIDOU-3S IGSO-1S (C31)",
        "group": "gnss",
        "lat": 2.388578167195716,
        "lon": 115.56889743452095,
        "alt_km": 35634.105863021796,
        "timestamp": "2025-12-17T19:34:08.281391+00:00",
        "meta_object_name": "BEIDOU-3S IGSO-1S (C31)",
        "meta_object_id": "2015-019A",
        "meta_epoch": "2025-12-16T22:00:09.125856",
        "meta_mean_motion": 1.00292577,
        "meta_eccentricity": 0.00363578,
        "meta_inclination": 49.5427,
        "meta_ra_of_asc_node": 297.6612,
        "meta_arg_of_pericenter": 193.8033,
        "meta_mean_anomaly": 18.6613,
        "meta_ephemeris_type": 0,
        "meta_classification_type": "U",
        "meta_norad_cat_id": 40549,
        "meta_element_set_no": 999,
        "meta_rev_at_epoch": 3924,
        "meta_bstar": 0,
        "meta_mean_motion_dot": -1.91e-06,
        "meta_mean_motion_ddot": 0,
        "tle_line1": "1 40549U 15019A   25350.91677229 -.00000191  00000+0  00000+0 0  9996",
        "tle_line2": "2 40549  49.5427 297.6612 0036357 193.8033  18.6613  1.00292577 39245"
      },
      "geometry": {
        "type": "Point",
        "coordinates": [
          115.56889743452095,
          2.388578167195716
        ]
      }
    },
    {
      "type": "Feature",
      "properties": {
        "norad_id": 40730,
        "name": "GPS BIIF-10 (PRN 08)",
        "group": "gnss",
        "lat": 43.63202483248323,
        "lon": -41.91030673854709,
        "alt_km": 19924.110258887893,
        "timestamp": "2025-12-17T19:34:08.281405+00:00",
        "meta_object_name": "GPS BIIF-10 (PRN 08)",
        "meta_object_id": "2015-033A",
        "meta_epoch": "2025-12-16T17:44:20.711040",
        "meta_mean_motion": 2.00565512,
        "meta_eccentricity": 0.01112183,
        "meta_inclination": 54.1271,
        "meta_ra_of_asc_node": 274.6083,
        "meta_arg_of_pericenter": 26.9056,
        "meta_mean_anomaly": 333.6857,
        "meta_ephemeris_type": 0,
        "meta_classification_type": "U",
        "meta_norad_cat_id": 40730,
        "meta_element_set_no": 999,
        "meta_rev_at_epoch": 7633,
        "meta_bstar": 0,
        "meta_mean_motion_dot": -5.1e-07,
        "meta_mean_motion_ddot": 0,
        "tle_line1": "1 40730U 15033A   25350.73912860 -.00000051  00000+0  00000+0 0  9992",
        "tle_line2": "2 40730  54.1271 274.6083 0111218  26.9056 333.6857  2.00565512 76338"
      },
      "geometry": {
        "type": "Point",
        "coordinates": [
          -41.91030673854709,
          43.63202483248323
        ]
      }
    },
    {
      "type": "Feature",
      "properties": {
        "norad_id": 40748,
        "name": "BEIDOU-3S M2S (C58)",
        "group": "gnss",
        "lat": -10.172878934056127,
        "lon": -58.94222339881776,
        "alt_km": 21523.522722573773,
        "timestamp": "2025-12-17T19:34:08.281416+00:00",
        "meta_object_name": "BEIDOU-3S M2S (C58)",
        "meta_object_id": "2015-037A",
        "meta_epoch": "2025-12-11T22:15:26.437248",
        "meta_mean_motion": 1.8622897,
        "meta_eccentricity": 0.00123447,
        "meta_inclination": 55.0397,
        "meta_ra_of_asc_node": 308.4912,
        "meta_arg_of_pericenter": 267.8245,
        "meta_mean_anomaly": 92.025,
        "meta_ephemeris_type": 0,
        "meta_classification_type": "U",
        "meta_norad_cat_id": 40748,
        "meta_element_set_no": 999,
        "meta_rev_at_epoch": 7063,
        "meta_bstar": 0,
        "meta_mean_motion_dot": -8.9e-07,
        "meta_mean_motion_ddot": 0,
        "tle_line1": "1 40748U 15037A   25345.92738932 -.00000089  00000+0  00000+0 0  9997",
        "tle_line2": "2 40748  55.0397 308.4912 0012344 267.8245  92.0250  1.86228970 70636"
      },
      "geometry": {
        "type": "Point",
        "coordinates": [
          -58.94222339881776,
          -10.172878934056127
        ]
      }
    },
    {
      "type": "Feature",
      "properties": {
        "norad_id": 40749,
        "name": "BEIDOU-3S M1S (C57)",
        "group": "gnss",
        "lat": -11.21187172105099,
        "lon": 136.22323208903737,
        "alt_km": 21536.708425414054,
        "timestamp": "2025-12-17T19:34:08.281430+00:00",
        "meta_object_name": "BEIDOU-3S M1S (C57)",
        "meta_object_id": "2015-037B",
        "meta_epoch": "2025-12-11T14:53:54.000096",
        "meta_mean_motion": 1.86253918,
        "meta_eccentricity": 0.00034406,
        "meta_inclination": 55.0364,
        "meta_ra_of_asc_node": 308.4915,
        "meta_arg_of_pericenter": 358.1692,
        "meta_mean_anomaly": 1.8205,
        "meta_ephemeris_type": 0,
        "meta_classification_type": "U",
        "meta_norad_cat_id": 40749,
        "meta_element_set_no": 999,
        "meta_rev_at_epoch": 7063,
        "meta_bstar": 0,
        "meta_mean_motion_dot": -8.8e-07,
        "meta_mean_motion_ddot": 0,
        "tle_line1": "1 40749U 15037B   25345.62076389 -.00000088  00000+0  00000+0 0  9995",
        "tle_line2": "2 40749  55.0364 308.4915 0003440 358.1692   1.8205  1.86253918 70639"
      },
      "geometry": {
        "type": "Point",
        "coordinates": [
          136.22323208903737,
          -11.21187172105099
        ]
      }
    },
    {
      "type": "Feature",
      "properties": {
        "norad_id": 40889,
        "name": "GSAT0205 (GALILEO 9)",
        "group": "gnss",
        "lat": -53.14017190327101,
        "lon": 115.64864089854049,
        "alt_km": 23242.175171528863,
        "timestamp": "2025-12-17T19:34:08.281441+00:00",
        "meta_object_name": "GSAT0205 (GALILEO 9)",
        "meta_object_id": "2015-045A",
        "meta_epoch": "2025-12-13T06:56:57.536448",
        "meta_mean_motion": 1.70473165,
        "meta_eccentricity": 0.00060191,
        "meta_inclination": 55.0031,
        "meta_ra_of_asc_node": 226.743,
        "meta_arg_of_pericenter": 39.8542,
        "meta_mean_anomaly": 320.2702,
        "meta_ephemeris_type": 0,
        "meta_classification_type": "U",
        "meta_norad_cat_id": 40889,
        "meta_element_set_no": 999,
        "meta_rev_at_epoch": 6384,
        "meta_bstar": 0,
        "meta_mean_motion_dot": 2.2e-07,
        "meta_mean_motion_ddot": 0,
        "tle_line1": "1 40889U 15045A   25347.28955482  .00000022  00000+0  00000+0 0  9990",
        "tle_line2": "2 40889  55.0031 226.7430 0006019  39.8542 320.2702  1.70473165 63847"
      },
      "geometry": {
        "type": "Point",
        "coordinates": [
          115.64864089854049,
          -53.14017190327101
        ]
      }
    },
    {
      "type": "Feature",
      "properties": {
        "norad_id": 40890,
        "name": "GSAT0206 (GALILEO 10)",
        "group": "gnss",
        "lat": 43.84707672495019,
        "lon": 4.369647794403578,
        "alt_km": 23215.62244053739,
        "timestamp": "2025-12-17T19:34:08.281452+00:00",
        "meta_object_name": "GSAT0206 (GALILEO 10)",
        "meta_object_id": "2015-045B",
        "meta_epoch": "2025-12-14T16:24:04.185792",
        "meta_mean_motion": 1.70473242,
        "meta_eccentricity": 0.00039786,
        "meta_inclination": 55.0018,
        "meta_ra_of_asc_node": 226.6995,
        "meta_arg_of_pericenter": 38.8814,
        "meta_mean_anomaly": 321.2332,
        "meta_ephemeris_type": 0,
        "meta_classification_type": "U",
        "meta_norad_cat_id": 40890,
        "meta_element_set_no": 999,
        "meta_rev_at_epoch": 6389,
        "meta_bstar": 0,
        "meta_mean_motion_dot": 3.4e-07,
        "meta_mean_motion_ddot": 0,
        "tle_line1": "1 40890U 15045B   25348.68338178  .00000034  00000+0  00000+0 0  9997",
        "tle_line2": "2 40890  55.0018 226.6995 0003978  38.8814 321.2332  1.70473242 63892"
      },
      "geometry": {
        "type": "Point",
        "coordinates": [
          4.369647794403578,
          43.84707672495019
        ]
      }
    }
  ]
}